BLUEBON                 
1 62688U 25009CH  26068.70316231  .00010452  00000+0  37313-3 0  9992
2 62688  97.4017 152.2033 0001193  43.3900 316.7434 15.29047253 63767
STARLINK-34084          
1 63970U 25099U   26068.31320459  .00042448  00000+0  15427-2 0  9991
2 63970  42.9963 177.9147 0000559 254.2506 105.8284 15.27590814 47280
